[{"OBJECT_NAME":"STARLINK-3572","OBJECT_ID":"2022-022AD","EPOCH":"2025-12-02T06:36:46.841760","MEAN_MOTION":15.08841397,"ECCENTRICITY":0.00010459,"INCLINATION":53.217,"RA_OF_ASC_NODE":76.4302,"ARG_OF_PERICENTER":89.558,"MEAN_ANOMALY":270.5532,"EPHEMERIS_TYPE":0,"CLASSIFICATION_TYPE":"U","NORAD_CAT_ID":51879,"ELEMENT_SET_NO":999,"REV_AT_EPOCH":20854,"BSTAR":0.00013797097,"MEAN_MOTION_DOT":1.909e-5,"MEAN_MOTION_DDOT":0},{"OBJECT_NAME":"STARLINK-3566","OBJECT_ID":"2022-022AE","EPOCH":"2025-12-01T23:10:17.427936","MEAN_MOTION":15.08825318,"ECCENTRICITY":0.00015455,"INCLINATION":53.2176,"RA_OF_ASC_NODE":87.5432,"ARG_OF_PERICENTER":74.022,"MEAN_ANOMALY":286.0943,"EPHEMERIS_TYPE":0,"CLASSIFICATION_TYPE":"U","NORAD_CAT_ID":51880,"ELEMENT_SET_NO":999,"REV_AT_EPOCH":20836,"BSTAR":9.3574688e-5,"MEAN_MOTION_DOT":1.201e-5,"MEAN_MOTION_DDOT":0},{"OBJECT_NAME":"STARLINK-3504","OBJECT_ID":"2022-022AF","EPOCH":"2025-12-02T06:26:09.440448","MEAN_MOTION":15.08855586,"ECCENTRICITY":0.00012726,"INCLINATION":53.2177,"RA_OF_ASC_NODE":76.464,"ARG_OF_PERICENTER":85.807,"MEAN_ANOMALY":274.3067,"EPHEMERIS_TYPE":0,"CLASSIFICATION_TYPE":"U","NORAD_CAT_ID":51881,"ELEMENT_SET_NO":999,"REV_AT_EPOCH":20859,"BSTAR":0.00012336476,"MEAN_MOTION_DOT":1.677e-5,"MEAN_MOTION_DDOT":0},{"OBJECT_NAME":"STARLINK-3570","OBJECT_ID":"2022-022AG","EPOCH":"2025-12-02T06:43:28.099776","MEAN_MOTION":15.08860963,"ECCENTRICITY":0.00017088,"INCLINATION":53.2159,"RA_OF_ASC_NODE":76.4173,"ARG_OF_PERICENTER":77.0054,"MEAN_ANOMALY":283.1129,"EPHEMERIS_TYPE":0,"CLASSIFICATION_TYPE":"U","NORAD_CAT_ID":51882,"ELEMENT_SET_NO":999,"REV_AT_EPOCH":20859,"BSTAR":0.00050337904,"MEAN_MOTION_DOT":7.737e-5,"MEAN_MOTION_DDOT":0},{"OBJECT_NAME":"STARLINK-3576","OBJECT_ID":"2022-022AH","EPOCH":"2025-12-02T00:20:32.685216","MEAN_MOTION":15.08850283,"ECCENTRICITY":0.00011528,"INCLINATION":53.2176,"RA_OF_ASC_NODE":77.7839,"ARG_OF_PERICENTER":87.132,"MEAN_ANOMALY":272.9804,"EPHEMERIS_TYPE":0,"CLASSIFICATION_TYPE":"U","NORAD_CAT_ID":51883,"ELEMENT_SET_NO":999,"REV_AT_EPOCH":20849,"BSTAR":0.00020523201,"MEAN_MOTION_DOT":2.981e-5,"MEAN_MOTION_DDOT":0},{"OBJECT_NAME":"STARLINK-3577","OBJECT_ID":"2022-022AJ","EPOCH":"2025-12-02T06:31:29.048736","MEAN_MOTION":15.08839359,"ECCENTRICITY":0.00013079,"INCLINATION":53.219,"RA_OF_ASC_NODE":76.4477,"ARG_OF_PERICENTER":86.5048,"MEAN_ANOMALY":273.6094,"EPHEMERIS_TYPE":0,"CLASSIFICATION_TYPE":"U","NORAD_CAT_ID":51884,"ELEMENT_SET_NO":999,"REV_AT_EPOCH":20862,"BSTAR":7.7015028e-5,"MEAN_MOTION_DOT":9.38e-6,"MEAN_MOTION_DDOT":0},{"OBJECT_NAME":"STARLINK-3584","OBJECT_ID":"2022-022AK","EPOCH":"2025-12-02T06:10:16.419936","MEAN_MOTION":15.08916647,"ECCENTRICITY":0.00027845,"INCLINATION":53.2181,"RA_OF_ASC_NODE":76.5115,"ARG_OF_PERICENTER":120.5886,"MEAN_ANOMALY":239.5381,"EPHEMERIS_TYPE":0,"CLASSIFICATION_TYPE":"U","NORAD_CAT_ID":51885,"ELEMENT_SET_NO":999,"REV_AT_EPOCH":20853,"BSTAR":-0.00080699496,"MEAN_MOTION_DOT":-0.00013137,"MEAN_MOTION_DDOT":0},{"OBJECT_NAME":"STARLINK-3565","OBJECT_ID":"2022-022AL","EPOCH":"2025-12-01T14:27:01.943712","MEAN_MOTION":15.08835734,"ECCENTRICITY":0.00012391,"INCLINATION":53.2179,"RA_OF_ASC_NODE":79.4541,"ARG_OF_PERICENTER":87.3392,"MEAN_ANOMALY":272.7742,"EPHEMERIS_TYPE":0,"CLASSIFICATION_TYPE":"U","NORAD_CAT_ID":51886,"ELEMENT_SET_NO":999,"REV_AT_EPOCH":20844,"BSTAR":4.6991589e-5,"MEAN_MOTION_DOT":4.6e-6,"MEAN_MOTION_DDOT":0},{"OBJECT_NAME":"STARLINK-3551","OBJECT_ID":"2022-022AM","EPOCH":"2025-12-02T02:54:13.296672","MEAN_MOTION":15.08833166,"ECCENTRICITY":0.00012221,"INCLINATION":53.2181,"RA_OF_ASC_NODE":77.1239,"ARG_OF_PERICENTER":89.0558,"MEAN_ANOMALY":271.0574,"EPHEMERIS_TYPE":0,"CLASSIFICATION_TYPE":"U","NORAD_CAT_ID":51887,"ELEMENT_SET_NO":999,"REV_AT_EPOCH":20851,"BSTAR":-3.4292609e-5,"MEAN_MOTION_DOT":-8.33e-6,"MEAN_MOTION_DDOT":0},{"OBJECT_NAME":"STARLINK-3536","OBJECT_ID":"2022-022AN","EPOCH":"2025-12-02T06:15:34.935264","MEAN_MOTION":15.08840186,"ECCENTRICITY":0.00012868,"INCLINATION":53.2184,"RA_OF_ASC_NODE":76.4976,"ARG_OF_PERICENTER":92.2369,"MEAN_ANOMALY":267.877,"EPHEMERIS_TYPE":0,"CLASSIFICATION_TYPE":"U","NORAD_CAT_ID":51888,"ELEMENT_SET_NO":999,"REV_AT_EPOCH":20854,"BSTAR":2.7189193e-5,"MEAN_MOTION_DOT":1.45e-6,"MEAN_MOTION_DDOT":0},{"OBJECT_NAME":"STARLINK-3547","OBJECT_ID":"2022-022AP","EPOCH":"2025-12-01T23:27:32.713344","MEAN_MOTION":15.08835496,"ECCENTRICITY":0.00012488,"INCLINATION":53.2197,"RA_OF_ASC_NODE":77.7664,"ARG_OF_PERICENTER":91.1559,"MEAN_ANOMALY":268.9577,"EPHEMERIS_TYPE":0,"CLASSIFICATION_TYPE":"U","NORAD_CAT_ID":51889,"ELEMENT_SET_NO":999,"REV_AT_EPOCH":20849,"BSTAR":1.3717784e-5,"MEAN_MOTION_DOT":-7.0e-7,"MEAN_MOTION_DDOT":0},{"OBJECT_NAME":"STARLINK-3549","OBJECT_ID":"2022-022AR","EPOCH":"2025-12-01T13:49:55.844256","MEAN_MOTION":15.08834562,"ECCENTRICITY":0.00014218,"INCLINATION":53.2177,"RA_OF_ASC_NODE":79.5656,"ARG_OF_PERICENTER":94.2003,"MEAN_ANOMALY":265.9152,"EPHEMERIS_TYPE":0,"CLASSIFICATION_TYPE":"U","NORAD_CAT_ID":51891,"ELEMENT_SET_NO":999,"REV_AT_EPOCH":20848,"BSTAR":-9.118293e-6,"MEAN_MOTION_DOT":-4.33e-6,"MEAN_MOTION_DDOT":0},{"OBJECT_NAME":"STARLINK-3587","OBJECT_ID":"2022-022AS","EPOCH":"2025-12-02T05:54:23.463360","MEAN_MOTION":15.08834342,"ECCENTRICITY":0.00013417,"INCLINATION":53.221,"RA_OF_ASC_NODE":76.5614,"ARG_OF_PERICENTER":94.0557,"MEAN_ANOMALY":266.0589,"EPHEMERIS_TYPE":0,"CLASSIFICATION_TYPE":"U","NORAD_CAT_ID":51892,"ELEMENT_SET_NO":999,"REV_AT_EPOCH":20853,"BSTAR":3.8694839e-5,"MEAN_MOTION_DOT":3.28e-6,"MEAN_MOTION_DDOT":0},{"OBJECT_NAME":"STARLINK-3579","OBJECT_ID":"2022-022AT","EPOCH":"2025-12-01T13:39:19.471104","MEAN_MOTION":15.08849376,"ECCENTRICITY":9.517e-5,"INCLINATION":53.2178,"RA_OF_ASC_NODE":79.6011,"ARG_OF_PERICENTER":92.0425,"MEAN_ANOMALY":268.0676,"EPHEMERIS_TYPE":0,"CLASSIFICATION_TYPE":"U","NORAD_CAT_ID":51893,"ELEMENT_SET_NO":999,"REV_AT_EPOCH":20849,"BSTAR":-0.00019731595,"MEAN_MOTION_DOT":-3.427e-5,"MEAN_MOTION_DDOT":0},{"OBJECT_NAME":"STARLINK-3595","OBJECT_ID":"2022-022AU","EPOCH":"2025-12-01T13:44:37.898304","MEAN_MOTION":15.08834575,"ECCENTRICITY":0.00014618,"INCLINATION":53.2173,"RA_OF_ASC_NODE":79.583,"ARG_OF_PERICENTER":92.7694,"MEAN_ANOMALY":267.3465,"EPHEMERIS_TYPE":0,"CLASSIFICATION_TYPE":"U","NORAD_CAT_ID":51894,"ELEMENT_SET_NO":999,"REV_AT_EPOCH":20849,"BSTAR":-5.788001e-6,"MEAN_MOTION_DOT":-3.8e-6,"MEAN_MOTION_DDOT":0},{"OBJECT_NAME":"STARLINK-3594","OBJECT_ID":"2022-022AV","EPOCH":"2025-12-02T07:03:16.454016","MEAN_MOTION":15.0883897,"ECCENTRICITY":0.00012557,"INCLINATION":53.2166,"RA_OF_ASC_NODE":76.3453,"ARG_OF_PERICENTER":93.5629,"MEAN_ANOMALY":266.5507,"EPHEMERIS_TYPE":0,"CLASSIFICATION_TYPE":"U","NORAD_CAT_ID":51895,"ELEMENT_SET_NO":999,"REV_AT_EPOCH":20854,"BSTAR":4.8193342e-5,"MEAN_MOTION_DOT":4.79e-6,"MEAN_MOTION_DDOT":0},{"OBJECT_NAME":"STARLINK-3593","OBJECT_ID":"2022-022AW","EPOCH":"2025-12-02T05:59:43.653984","MEAN_MOTION":15.08835682,"ECCENTRICITY":0.00012159,"INCLINATION":53.2197,"RA_OF_ASC_NODE":76.7686,"ARG_OF_PERICENTER":89.7705,"MEAN_ANOMALY":270.3427,"EPHEMERIS_TYPE":0,"CLASSIFICATION_TYPE":"U","NORAD_CAT_ID":51896,"ELEMENT_SET_NO":999,"REV_AT_EPOCH":20858,"BSTAR":5.2763844e-5,"MEAN_MOTION_DOT":5.52e-6,"MEAN_MOTION_DDOT":0},{"OBJECT_NAME":"STARLINK-3598","OBJECT_ID":"2022-022AX","EPOCH":"2025-12-02T00:36:25.805952","MEAN_MOTION":15.08842547,"ECCENTRICITY":0.0001198,"INCLINATION":53.2182,"RA_OF_ASC_NODE":77.5523,"ARG_OF_PERICENTER":76.3158,"MEAN_ANOMALY":283.7968,"EPHEMERIS_TYPE":0,"CLASSIFICATION_TYPE":"U","NORAD_CAT_ID":51897,"ELEMENT_SET_NO":999,"REV_AT_EPOCH":20850,"BSTAR":7.0493511e-5,"MEAN_MOTION_DOT":8.34e-6,"MEAN_MOTION_DDOT":0},{"OBJECT_NAME":"STARLINK-3597","OBJECT_ID":"2022-022AY","EPOCH":"2025-12-02T06:52:40.594080","MEAN_MOTION":15.08839651,"ECCENTRICITY":0.00013129,"INCLINATION":53.2169,"RA_OF_ASC_NODE":76.3799,"ARG_OF_PERICENTER":84.3081,"MEAN_ANOMALY":275.8061,"EPHEMERIS_TYPE":0,"CLASSIFICATION_TYPE":"U","NORAD_CAT_ID":51898,"ELEMENT_SET_NO":999,"REV_AT_EPOCH":20859,"BSTAR":7.371671e-6,"MEAN_MOTION_DOT":-1.71e-6,"MEAN_MOTION_DDOT":0},{"OBJECT_NAME":"STARLINK-3700","OBJECT_ID":"2022-025A","EPOCH":"2025-12-01T15:56:10.444992","MEAN_MOTION":15.06396335,"ECCENTRICITY":0.00022374,"INCLINATION":53.0558,"RA_OF_ASC_NODE":101.6771,"ARG_OF_PERICENTER":104.0838,"MEAN_ANOMALY":256.0399,"EPHEMERIS_TYPE":0,"CLASSIFICATION_TYPE":"U","NORAD_CAT_ID":51956,"ELEMENT_SET_NO":999,"REV_AT_EPOCH":20627,"BSTAR":1.6152e-6,"MEAN_MOTION_DOT":-2.58e-6,"MEAN_MOTION_DDOT":0},{"OBJECT_NAME":"STARLINK-3694","OBJECT_ID":"2022-025B","EPOCH":"2025-12-01T16:12:37.239264","MEAN_MOTION":15.0639607,"ECCENTRICITY":3.552e-5,"INCLINATION":53.0536,"RA_OF_ASC_NODE":115.8723,"ARG_OF_PERICENTER":114.1698,"MEAN_ANOMALY":245.9328,"EPHEMERIS_TYPE":0,"CLASSIFICATION_TYPE":"U","NORAD_CAT_ID":51957,"ELEMENT_SET_NO":999,"REV_AT_EPOCH":20607,"BSTAR":1.0101502e-5,"MEAN_MOTION_DOT":-1.31e-6,"MEAN_MOTION_DDOT":0},{"OBJECT_NAME":"STARLINK-3692","OBJECT_ID":"2022-025C","EPOCH":"2025-12-02T01:24:05.870592","MEAN_MOTION":15.06397659,"ECCENTRICITY":0.00010713,"INCLINATION":53.055,"RA_OF_ASC_NODE":99.9114,"ARG_OF_PERICENTER":88.9403,"MEAN_ANOMALY":271.1709,"EPHEMERIS_TYPE":0,"CLASSIFICATION_TYPE":"U","NORAD_CAT_ID":51958,"ELEMENT_SET_NO":999,"REV_AT_EPOCH":20633,"BSTAR":1.3879251e-5,"MEAN_MOTION_DOT":-7.5e-7,"MEAN_MOTION_DDOT":0},{"OBJECT_NAME":"STARLINK-3704","OBJECT_ID":"2022-025D","EPOCH":"2025-12-01T16:17:55.612032","MEAN_MOTION":15.06393915,"ECCENTRICITY":0.00012471,"INCLINATION":53.0542,"RA_OF_ASC_NODE":115.8292,"ARG_OF_PERICENTER":88.3047,"MEAN_ANOMALY":271.8085,"EPHEMERIS_TYPE":0,"CLASSIFICATION_TYPE":"U","NORAD_CAT_ID":51959,"ELEMENT_SET_NO":999,"REV_AT_EPOCH":20607,"BSTAR":4.4666171e-5,"MEAN_MOTION_DOT":3.84e-6,"MEAN_MOTION_DDOT":0}]
